start=new Date('2021-12-30T00:00:00.000Z').valueOf();
sats=[{"SEMIMAJOR_AXIS":"6925.350","INCLINATION":"53.0537","CLASSIFICATION_TYPE":"U","APOAPSIS":"548.654","SITE":"AFETR","LAUNCH_DATE":"2021-03-04","RA_OF_ASC_NODE":"233.5885","MEAN_ELEMENT_THEORY":"SGP4","PERIOD":"95.592","REV_AT_EPOCH":"4714","OBJECT_ID":"2021-017AC","TLE_LINE1":"1 47748U 21017AC  21363.90533904  .00003330  00000-0  24237-3 0  9999","CENTER_NAME":"EARTH","BSTAR":"0.00024237000000","PERIAPSIS":"545.776","GP_ID":"192743564","EPOCH":"2021-12-29T21:43:41.293056","ECCENTRICITY":"0.00020780","REF_FRAME":"TEME","OBJECT_TYPE":"PAYLOAD","TLE_LINE2":"2 47748  53.0537 233.5885 0002078  66.9455 293.1753 15.06399588 47141","FILE":"3255236","TIME_SYSTEM":"UTC","MEAN_MOTION_DOT":"0.00003330","MEAN_MOTION":"15.06399588","EPHEMERIS_TYPE":"0","RCS_SIZE":"LARGE","NORAD_CAT_ID":"47748","MEAN_MOTION_DDOT":"0.0000000000000","COUNTRY_CODE":"US","ELEMENT_SET_NO":"999","OBJECT_NAME":"STARLINK-2162","DECAY_DATE":null,"ARG_OF_PERICENTER":"66.9455","MEAN_ANOMALY":"293.1753"},{"ARG_OF_PERICENTER":"68.5314","DECAY_DATE":null,"MEAN_ANOMALY":"291.5879","OBJECT_NAME":"STARLINK-2163","MEAN_MOTION_DDOT":"0.0000000000000","ELEMENT_SET_NO":"999","COUNTRY_CODE":"US","EPHEMERIS_TYPE":"0","MEAN_MOTION":"15.06407119","TIME_SYSTEM":"UTC","MEAN_MOTION_DOT":"0.00002688","RCS_SIZE":"LARGE","NORAD_CAT_ID":"47749","FILE":"3255236","TLE_LINE2":"2 47749  53.0542 233.5035 0001917  68.5314 291.5879 15.06407119 47149","REF_FRAME":"TEME","OBJECT_TYPE":"PAYLOAD","EPOCH":"2021-12-29T22:04:54.523200","GP_ID":"192744316","ECCENTRICITY":"0.00019170","PERIAPSIS":"545.864","BSTAR":"0.00019927000000","CENTER_NAME":"EARTH","PERIOD":"95.592","REV_AT_EPOCH":"4714","MEAN_ELEMENT_THEORY":"SGP4","TLE_LINE1":"1 47749U 21017AD  21363.92007550  .00002688  00000-0  19927-3 0  9990","OBJECT_ID":"2021-017AD","RA_OF_ASC_NODE":"233.5035","SITE":"AFETR","LAUNCH_DATE":"2021-03-04","CLASSIFICATION_TYPE":"U","APOAPSIS":"548.519","INCLINATION":"53.0542","SEMIMAJOR_AXIS":"6925.327"},{"ECCENTRICITY":"0.00021320","GP_ID":"192745065","EPOCH":"2021-12-29T21:33:03.847680","PERIAPSIS":"545.735","TLE_LINE2":"2 47750  53.0564 233.6190 0002132  71.4451 288.6770 15.06400688 47144","FILE":"3255236","OBJECT_TYPE":"PAYLOAD","REF_FRAME":"TEME","COUNTRY_CODE":"US","ELEMENT_SET_NO":"999","MEAN_MOTION_DDOT":"0.0000000000000","RCS_SIZE":"LARGE","NORAD_CAT_ID":"47750","TIME_SYSTEM":"UTC","MEAN_MOTION_DOT":"0.00002459","EPHEMERIS_TYPE":"0","MEAN_MOTION":"15.06400688","MEAN_ANOMALY":"288.6770","DECAY_DATE":null,"ARG_OF_PERICENTER":"71.4451","OBJECT_NAME":"STARLINK-2164","APOAPSIS":"548.688","CLASSIFICATION_TYPE":"U","SEMIMAJOR_AXIS":"6925.346","INCLINATION":"53.0564","RA_OF_ASC_NODE":"233.6190","SITE":"AFETR","LAUNCH_DATE":"2021-03-04","BSTAR":"0.00018394000000","CENTER_NAME":"EARTH","OBJECT_ID":"2021-017AE","TLE_LINE1":"1 47750U 21017AE  21363.89796120  .00002459  00000-0  18394-3 0  9999","MEAN_ELEMENT_THEORY":"SGP4","REV_AT_EPOCH":"4714","PERIOD":"95.592"},{"LAUNCH_DATE":"2021-03-04","SITE":"AFETR","RA_OF_ASC_NODE":"223.4620","MEAN_ELEMENT_THEORY":"SGP4","PERIOD":"95.592","REV_AT_EPOCH":"4729","OBJECT_ID":"2021-017AF","TLE_LINE1":"1 47751U 21017AF  21363.92837570  .00000456  00000-0  49503-4 0  9991","CENTER_NAME":"EARTH","BSTAR":"0.00004950300000","SEMIMAJOR_AXIS":"6925.360","INCLINATION":"53.0535","CLASSIFICATION_TYPE":"U","APOAPSIS":"548.647","MEAN_MOTION_DOT":"0.00000456","TIME_SYSTEM":"UTC","MEAN_MOTION":"15.06396291","EPHEMERIS_TYPE":"0","NORAD_CAT_ID":"47751","RCS_SIZE":"LARGE","MEAN_MOTION_DDOT":"0.0000000000000","ELEMENT_SET_NO":"999","COUNTRY_CODE":"US","OBJECT_NAME":"STARLINK-2168","DECAY_DATE":null,"ARG_OF_PERICENTER":"65.1784","MEAN_ANOMALY":"294.9418","PERIAPSIS":"545.802","GP_ID":"192745317","EPOCH":"2021-12-29T22:16:51.660480","ECCENTRICITY":"0.00020540","REF_FRAME":"TEME","OBJECT_TYPE":"PAYLOAD","TLE_LINE2":"2 47751  53.0535 223.4620 0002054  65.1784 294.9418 15.06396291 47299","FILE":"3255236"},{"OBJECT_ID":"2021-017AG","TLE_LINE1":"1 47752U 21017AG  21363.89566197  .00001434  00000-0  11516-3 0  9991","MEAN_ELEMENT_THEORY":"SGP4","REV_AT_EPOCH":"4712","PERIOD":"95.593","CENTER_NAME":"EARTH","BSTAR":"0.00011516000000","SITE":"AFETR","LAUNCH_DATE":"2021-03-04","RA_OF_ASC_NODE":"238.6344","SEMIMAJOR_AXIS":"6925.372","INCLINATION":"53.0549","APOAPSIS":"548.607","CLASSIFICATION_TYPE":"U","OBJECT_NAME":"STARLINK-2169","MEAN_ANOMALY":"302.3878","DECAY_DATE":null,"ARG_OF_PERICENTER":"57.7303","NORAD_CAT_ID":"47752","RCS_SIZE":"MEDIUM","TIME_SYSTEM":"UTC","MEAN_MOTION_DOT":"0.00001434","MEAN_MOTION":"15.06392233","EPHEMERIS_TYPE":"0","COUNTRY_CODE":"US","ELEMENT_SET_NO":"999","MEAN_MOTION_DDOT":"0.0000000000000","OBJECT_TYPE":"PAYLOAD","REF_FRAME":"TEME","TLE_LINE2":"2 47752  53.0549 238.6344 0001977  57.7303 302.3878 15.06392233 47121","FILE":"3255236","PERIAPSIS":"545.868","ECCENTRICITY":"0.00019770","EPOCH":"2021-12-29T21:29:45.194208","GP_ID":"192744065"},{"MEAN_MOTION_DDOT":"0.0000000000000","COUNTRY_CODE":"US","ELEMENT_SET_NO":"999","MEAN_MOTION_DOT":"0.00001528","TIME_SYSTEM":"UTC","MEAN_MOTION":"15.06399050","EPHEMERIS_TYPE":"0","NORAD_CAT_ID":"47753","RCS_SIZE":"LARGE","DECAY_DATE":null,"ARG_OF_PERICENTER":"64.8712","MEAN_ANOMALY":"295.2477","OBJECT_NAME":"STARLINK-2170","EPOCH":"2021-12-29T22:30:07.258464","GP_ID":"192743816","ECCENTRICITY":"0.00019370","PERIAPSIS":"545.875","TLE_LINE2":"2 47753  53.0543 243.4256 0001937  64.8712 295.2477 15.06399050 47052","FILE":"3255236","REF_FRAME":"TEME","OBJECT_TYPE":"PAYLOAD","RA_OF_ASC_NODE":"243.4256","LAUNCH_DATE":"2021-03-04","SITE":"AFETR","CENTER_NAME":"EARTH","BSTAR":"0.00012147000000","MEAN_ELEMENT_THEORY":"SGP4","PERIOD":"95.592","REV_AT_EPOCH":"4705","OBJECT_ID":"2021-017AH","TLE_LINE1":"1 47753U 21017AH  21363.93758401  .00001528  00000-0  12147-3 0  9993","CLASSIFICATION_TYPE":"U","APOAPSIS":"548.558","SEMIMAJOR_AXIS":"6925.351","INCLINATION":"53.0543"},{"APOAPSIS":"548.623","CLASSIFICATION_TYPE":"U","SEMIMAJOR_AXIS":"6925.332","INCLINATION":"53.0547","CENTER_NAME":"EARTH","BSTAR":"0.00033793000000","OBJECT_ID":"2021-017AJ","TLE_LINE1":"1 47754U 21017AJ  21363.90809864  .00004756  00000-0  33793-3 0  9997","MEAN_ELEMENT_THEORY":"SGP4","REV_AT_EPOCH":"4701","PERIOD":"95.592","RA_OF_ASC_NODE":"243.5668","SITE":"AFETR","LAUNCH_DATE":"2021-03-04","TLE_LINE2":"2 47754  53.0547 243.5668 0002060  54.4945 305.6236 15.06405522 47013","FILE":"3255236","OBJECT_TYPE":"PAYLOAD","REF_FRAME":"TEME","ECCENTRICITY":"0.00020600","EPOCH":"2021-12-29T21:47:39.722496","GP_ID":"192744565","PERIAPSIS":"545.770","MEAN_ANOMALY":"305.6236","DECAY_DATE":null,"ARG_OF_PERICENTER":"54.4945","OBJECT_NAME":"STARLINK-2171","ELEMENT_SET_NO":"999","COUNTRY_CODE":"US","MEAN_MOTION_DDOT":"0.0000000000000","NORAD_CAT_ID":"47754","RCS_SIZE":"LARGE","TIME_SYSTEM":"UTC","MEAN_MOTION_DOT":"0.00004756","EPHEMERIS_TYPE":"0","MEAN_MOTION":"15.06405522"},{"REF_FRAME":"TEME","OBJECT_TYPE":"PAYLOAD","TLE_LINE2":"2 47755  53.0489 236.5307 0002081  60.6677 299.4527 15.24605311 47106","FILE":"3255236","PERIAPSIS":"490.543","EPOCH":"2021-12-29T21:28:25.709664","GP_ID":"192744817","ECCENTRICITY":"0.00020810","OBJECT_NAME":"STARLINK-2172","DECAY_DATE":null,"ARG_OF_PERICENTER":"60.6677","MEAN_ANOMALY":"299.4527","TIME_SYSTEM":"UTC","MEAN_MOTION_DOT":"0.00302353","EPHEMERIS_TYPE":"0","MEAN_MOTION":"15.24605311","NORAD_CAT_ID":"47755","RCS_SIZE":"LARGE","MEAN_MOTION_DDOT":"0.0000000000000","ELEMENT_SET_NO":"999","COUNTRY_CODE":"US","SEMIMAJOR_AXIS":"6870.108","INCLINATION":"53.0489","CLASSIFICATION_TYPE":"U","APOAPSIS":"493.403","MEAN_ELEMENT_THEORY":"SGP4","PERIOD":"94.451","REV_AT_EPOCH":"4710","OBJECT_ID":"2021-017AK","TLE_LINE1":"1 47755U 21017AK  21363.89474201  .00302353  00000-0  11625-1 0  9991","BSTAR":"0.01162500000000","CENTER_NAME":"EARTH","SITE":"AFETR","LAUNCH_DATE":"2021-03-04","RA_OF_ASC_NODE":"236.5307"},{"MEAN_ELEMENT_THEORY":"SGP4","REV_AT_EPOCH":"4705","PERIOD":"95.592","OBJECT_ID":"2021-017AL","TLE_LINE1":"1 47756U 21017AL  21363.90440717  .00002169  00000-0  16447-3 0  9990","BSTAR":"0.00016447000000","CENTER_NAME":"EARTH","SITE":"AFETR","LAUNCH_DATE":"2021-03-04","RA_OF_ASC_NODE":"243.5895","SEMIMAJOR_AXIS":"6925.336","INCLINATION":"53.0545","CLASSIFICATION_TYPE":"U","APOAPSIS":"548.627","OBJECT_NAME":"STARLINK-2174","DECAY_DATE":null,"ARG_OF_PERICENTER":"69.5105","MEAN_ANOMALY":"290.6105","MEAN_MOTION_DOT":"0.00002169","TIME_SYSTEM":"UTC","MEAN_MOTION":"15.06404049","EPHEMERIS_TYPE":"0","NORAD_CAT_ID":"47756","RCS_SIZE":"LARGE","MEAN_MOTION_DDOT":"0.0000000000000","COUNTRY_CODE":"US","ELEMENT_SET_NO":"999","REF_FRAME":"TEME","OBJECT_TYPE":"PAYLOAD","TLE_LINE2":"2 47756  53.0545 243.5895 0002059  69.5105 290.6105 15.06404049 47053","FILE":"3255236","PERIAPSIS":"545.775","GP_ID":"192743565","EPOCH":"2021-12-29T21:42:20.779488","ECCENTRICITY":"0.00020590"},{"BSTAR":"0.00005874800000","CENTER_NAME":"EARTH","OBJECT_ID":"2021-017AM","TLE_LINE1":"1 47757U 21017AM  21363.88966690  .00000593  00000-0  58748-4 0  9991","MEAN_ELEMENT_THEORY":"SGP4","REV_AT_EPOCH":"4699","PERIOD":"95.593","RA_OF_ASC_NODE":"243.6554","LAUNCH_DATE":"2021-03-04","SITE":"AFETR","APOAPSIS":"548.339","CLASSIFICATION_TYPE":"U","SEMIMAJOR_AXIS":"6925.371","INCLINATION":"53.0563","MEAN_ANOMALY":"312.6056","DECAY_DATE":null,"ARG_OF_PERICENTER":"47.5067","OBJECT_NAME":"STARLINK-2175","COUNTRY_CODE":"US","ELEMENT_SET_NO":"999","MEAN_MOTION_DDOT":"0.0000000000000","RCS_SIZE":"MEDIUM","NORAD_CAT_ID":"47757","TIME_SYSTEM":"UTC","MEAN_MOTION_DOT":"0.00000593","EPHEMERIS_TYPE":"0","MEAN_MOTION":"15.06392643","TLE_LINE2":"2 47757  53.0563 243.6554 0001592  47.5067 312.6056 15.06392643 46999","FILE":"3255236","OBJECT_TYPE":"PAYLOAD","REF_FRAME":"TEME","ECCENTRICITY":"0.00015920","EPOCH":"2021-12-29T21:21:07.220160","GP_ID":"192744317","PERIAPSIS":"546.134"}];
